IRIDIUM 126             
1 42809U 17039G   25310.79637660  .00000369  00000+0  12460-3 0  9991
2 42809  86.3942  86.6125 0002103  87.5982 272.5455 14.34219150438072
IRIDIUM 124             
1 42810U 17039H   25311.26303616  .00000550  00000+0  15747-3 0  9990
2 42810  86.4530  23.1341 0002004  92.0654 268.0777 14.43281612443100
IRIDIUM 128             
1 42811U 17039J   25310.99642545  .00000108  00000+0  31328-4 0  9990
2 42811  86.3937 118.0633 0001648  95.3352 264.8032 14.34220416438133
IRIDIUM 121             
1 42812U 17039K   25310.81540485  .00000045  00000+0  89986-5 0  9996
2 42812  86.3941  86.6306 0002038  95.8890 264.2538 14.34217631437951
IRIDIUM 133             
1 42955U 17061A   25311.02813217  .00000013  00000+0 -25669-5 0  9993
2 42955  86.3940 118.1626 0001985  90.5454 269.5969 14.34218161422939
IRIDIUM 100             
1 42956U 17061B   25311.23109461  .00000046  00000+0  92115-5 0  9991
2 42956  86.3938 118.0015 0001960  86.2792 273.8628 14.34217801422961
IRIDIUM 122             
1 42957U 17061C   25310.99007700  .00000028  00000+0  28662-5 0  9993
2 42957  86.3942 118.1020 0001884  86.6329 273.5082 14.34217614422939
IRIDIUM 129             
1 42958U 17061D   25311.22475329  .00000009  00000+0 -38502-5 0  9991
2 42958  86.3940 118.0682 0002355  88.9557 271.1909 14.34217410422984
